C/2021 P4 (ATLAS),e,56.3550,348.0295,175.7977,294.6319,0.0001949,0.99633849,0.0000,07/30.3778/2022,2000,g  9.5,4.0
# From MPEC 2023-E68
P/2021 PE20 (ATLAS),e,19.9992,99.6232,210.4508,3.745988,0.1359423,0.66985987,180.0086,01/20.0/2025,2000,g 17.0,4.0
# From MPEC 2023-FK0
C/2021 Q3 (ATLAS),e,77.7219,307.9113,114.1355,75.34189,0.0015071,0.93088253,1.6424,01/20.0/2025,2000,g  8.0,4.0
# From MPEC 2025-A40
C/2021 Q4 (Fuls),h,06/11.4928/2023,71.5125,183.3267,147.0775,1.002358,7.565785,2000,6.0,4.0
# From MPEC 2025-AH4
P/2021 Q5 (ATLAS),e,10.7417,239.7392,180.9536,3.284327,0.1655902,0.62439080,204.9613,01/20.0/2025,2000,g 15.0,4.0
# From MPEC 2024-UA9
C/2021 Q6 (PANSTARRS),h,03/25.2303/2024,161.8280,133.5718,141.0638,1.002553,8.707817,2000,6.0,4.0
# From MPEC 2023-FK0
C/2021 QM45 (PANSTARRS),e,22.8054,354.5976,72.8973,405.1203,0.0001209,0.99314595,0.0000,08/13.7112/2022,2000,g 11.0,4.0
# From MPEC 2022-X67
P/2021 R1 (PANSTARRS),e,5.5279,143.1555,220.1208,8.268693,0.0414523,0.40925472,47.0961,01/20.0/2025,2000,g 11.0,4.0
# From MPEC 2022-X67
C/2021 R2 (PANSTARRS),e,134.4834,16.3249,32.5422,7777,0.0000014,0.99905921,0.0000,12/28.3236/2021,2000,g  7.5,4.0
# From MPEC 2021-W31
P/2021 R3 (PANSTARRS),e,19.9376,304.1927,2.6236,3.770035,0.1346437,0.33123287,179.9041,01/20.0/2025,2000,g 16.0,4.0
# From MPEC 2021-W31
P/2021 R4 (Wierzchos),e,21.0156,321.2867,56.7622,5.627167,0.0738362,0.58549022,88.1807,01/20.0/2025,2000,g 16.0,4.0
# From MPEC 2024-JU4
P/2021 R5 (Rankin),e,7.8543,219.9573,167.5973,4.797402,0.0937983,0.30616000,103.4920,01/20.0/2025,2000,g 12.0,4.0
# From MPEC 2021-W31
P/2021 R6 (Groeller),e,34.9005,176.1620,220.8627,6.288135,0.0625059,0.59320619,73.4995,01/20.0/2025,2000,g 14.5,4.0
# From MPEC 2022-X67
C/2021 R7 (PANSTARRS),e,158.8712,170.1890,140.3727,948.1386,0.0000338,0.99403656,0.0000,04/17.0583/2021,2000,g 10.5,4.0
# From MPEC 2021-Y10
P/2021 R8 (Sheppard),e,2.2029,167.0705,190.8345,3.019817,0.1878162,0.29269831,225.5736,01/20.0/2025,2000,g 18.5,4.0
# From MPEC 2023-J29
C/2021 S1 (ATLAS),h,03/01.8699/2022,52.0416,299.8603,148.2820,1.002850,6.123231,2000,7.0,4.0
# From MPEC 2025-AH4
C/2021 S3 (PANSTARRS),h,02/14.6865/2024,58.5343,215.6161,6.8415,1.000088,1.319984,2000,5.5,4.0
# From MPEC 2025-AE4
C/2021 S4 (Tsuchinshan),e,17.4785,5.4635,73.0065,158.9007,0.0004921,0.95789407,0.1881,01/20.0/2025,2000,g  6.5,4.0
# From MPEC 2022-OB6
C/2021 T1 (Lemmon),e,140.3592,56.8454,51.5820,2520,0.0000078,0.99878519,0.0000,10/14.6832/2021,2000,g 12.5,4.0
# From MPEC 2023-A50
C/2021 T2 (Fuls),h,06/08.2426/2022,117.5268,223.2227,263.5526,1.000547,1.245122,2000,12.0,4.0
# From MPEC 2025-AH4
C/2021 T4 (Lemmon),e,160.7784,257.8925,329.7929,8371,0.0000013,0.99982295,0.0000,07/31.5449/2023,2000,g  7.5,4.0
# From MPEC 2022-ED3
P/2021 U1 (Wierzchos),e,30.5520,246.7881,145.2205,8.538529,0.0395029,0.71281663,47.6811,01/20.0/2025,2000,g 14.5,4.0
# From MPEC 2022-L66
P/2021 U3 (Attard-Maury),e,69.9648,75.0915,335.3121,4.196399,0.1146539,0.54956178,135.6467,01/20.0/2025,2000,g 15.5,4.0
# From MPEC 2025-AH4
C/2021 U4 (Leonard),e,152.8867,241.8048,237.3477,44.58072,0.0033112,0.95988869,3.7237,01/20.0/2025,2000,g 17.0,4.0
# From MPEC 2022-WQ9
C/2021 U5 (Catalina),e,39.0414,182.7005,321.4387,220.2719,0.0003015,0.98928949,0.0000,01/26.8691/2022,2000,g 13.0,4.0
# From MPEC 2022-CN4
C/2021 V1 (Rankin),e,71.4442,207.6857,195.2054,710.9965,0.0000520,0.99575498,0.0000,04/30.6369/2022,2000,g 13.0,4.0
# From MPEC 2024-JU4
P/2021 V2 (Fuls),e,12.6943,232.2761,259.8811,9.085152,0.0359920,0.61510659,26.2448,01/20.0/2025,2000,g 10.0,4.0
# From MPEC 2024-TD8
C/2021 X1 (Maury-Attard),h,05/27.2237/2023,140.1040,10.6041,334.5986,1.000449,3.234342,2000,7.0,4.0
# From MPEC 2024-E08
C/2021 X2 (Bok),h,07/08.2677/2022,137.1583,228.8318,193.3650,1.001338,2.997574,2000,13.0,4.0
# From MPEC 2024-GJ3
C/2021 Y1 (ATLAS),h,04/30.8596/2023,77.1942,244.7669,245.8442,1.001461,2.032524,2000,7.0,4.0
# From MPEC 2025-AH4
C/2022 A1 (Sarneczky),e,116.5843,285.4944,201.2344,1321,0.0000205,0.99904912,0.0000,01/31.0214/2022,2000,g 18.0,4.0
# From MPEC 2024-P23
C/2022 A2 (PANSTARRS),h,02/18.1742/2023,108.1539,171.5943,88.3675,1.000072,1.735566,2000,9.5,4.0
# From MPEC 2024-UQ8
C/2022 A3 (Lemmon-ATLAS),e,88.3454,325.4629,234.8606,864.9601,0.0000387,0.99571768,0.0000,09/28.8998/2023,2000,g  8.0,4.0
# From MPEC 2022-K19
P/2022 B1 (Wierzchos),e,10.9929,325.3970,148.9108,5.468356,0.0770760,0.65358938,81.6345,01/20.0/2025,2000,g 16.5,4.0
# From MPEC 2022-YB4
A/2022 B3,e,132.0513,286.1790,150.7003,641.4104,0.0000607,0.99422775,0.0000,01/16.8425/2022,2000,g 16.5,2.0
# From MPEC 2022-GA9
C/2022 B4 (Bok),e,20.0532,340.5460,152.9905,396.9701,0.0001246,0.99653365,0.0000,01/30.3034/2022,2000,g 21.0,4.0
# From MPEC 2023-J29
P/2022 BV9 (Lemmon),e,11.9254,337.3102,16.3298,4.364978,0.1080764,0.23376511,167.5222,01/20.0/2025,2000,g  9.5,4.0
# From MPEC 2023-J29
P/2022 C1 (PANSTARRS),e,4.7629,113.1035,9.4210,7.231717,0.0506806,0.44904583,59.3880,01/20.0/2025,2000,g 12.0,4.0
# From MPEC 2023-VM5
P/2022 C2 (PANSTARRS),e,9.9846,135.2627,89.1577,6.033768,0.0664999,0.44186543,59.7269,01/20.0/2025,2000,g 12.5,4.0
# From MPEC 2023-UR6
P/2022 C3 (PANSTARRS),e,12.8239,139.0402,93.8230,9.616638,0.0330498,0.54543114,30.8941,01/20.0/2025,2000,g 11.5,4.0
# From MPEC 2022-K19
P/2022 D1 (PANSTARRS),e,44.0728,47.9544,88.6520,7.404660,0.0489155,0.54786998,60.6766,01/20.0/2025,2000,g 12.5,4.0
# From MPEC 2022-K19
C/2022 D2 (Kowalski),e,22.6751,312.3758,177.8319,388.5491,0.0001287,0.99600420,0.0000,03/27.9250/2022,2000,g 17.0,4.0
# From MPEC 2022-L66
P/2022 E1 (Christensen),e,19.0070,113.3442,114.9342,3.778244,0.1342051,0.22056896,128.2217,01/20.0/2025,2000,g 13.5,4.0
# From MPEC 2025-AH4
C/2022 E2 (ATLAS),h,09/14.1413/2024,137.1399,125.3918,41.7400,1.000721,3.666308,2000,5.0,4.0
# From MPEC 2024-GJ3
C/2022 E3 (ZTF),e,109.1724,302.5210,145.8139,145527,0.0000000,0.99999235,0.0000,01/12.6008/2023,2000,g  7.5,4.0
# From MPEC 2024-PC5
C/2022 F1 (ATLAS),e,58.0006,350.6356,278.3076,4594,0.0000032,0.99869922,0.0000,08/05.3269/2022,2000,g  7.0,4.0
# From MPEC 2022-QD9
C/2022 F2 (NEOWISE),e,97.3107,58.7847,200.6055,23.82790,0.0084737,0.93329601,8.7651,01/20.0/2025,2000,g 14.5,4.0
# From MPEC 2024-JU4
C/2022 H1 (PANSTARRS),e,49.8596,6.3367,246.2941,854.5123,0.0000395,0.99100131,0.0000,01/18.7756/2024,2000,g  6.0,4.0
# From MPEC 2022-VC5
C/2022 J1 (Maury-Attard),e,105.9587,280.7969,305.6341,47.55532,0.0030054,0.96632177,3.2031,01/20.0/2025,2000,g 14.9,4.0
# From MPEC 2023-M14
C/2022 J2 (Bok),e,149.1394,252.6611,133.1071,89.86617,0.0011569,0.97966929,0.0000,10/26.7793/2022,2000,g  9.0,4.0
# From MPEC 2024-YC7
C/2022 JK5 (PANSTARRS),e,16.8270,59.6508,247.3730,44.09082,0.0033665,0.93889487,2.1271,01/20.0/2025,2000,g 11.0,4.0
# From MPEC 2022-ST7
C/2022 K1 (Leonard),h,12/16.7988/2021,41.9716,136.3515,142.5818,1.001161,3.987505,2000,11.0,4.0
# From MPEC 2023-CD7
C/2022 L1 (Catalina),e,123.4387,300.0318,59.8139,451.8099,0.0001026,0.99647887,0.0000,09/27.9679/2022,2000,g 15.8,4.0
# From MPEC 2025-AH4
C/2022 L2 (ATLAS),h,03/12.2232/2024,129.3135,39.2403,199.9116,1.001008,2.692787,2000,6.5,4.0
# From MPEC 2024-DC6
P/2022 L3 (ATLAS),e,21.5403,29.8167,10.4020,6.505698,0.0593968,0.62758658,48.2916,01/20.0/2025,2000,g 16.5,4.0
# From MPEC 2022-N37
C/2022 L4 (PANSTARRS),e,141.2459,66.0676,125.2840,284.8359,0.0002050,0.98943051,0.0000,12/09.0543/2021,2000,g 14.0,4.0
# From MPEC 2024-GJ3
C/2022 N1 (Attard-Maury),e,164.7280,301.8783,41.0101,36.76261,0.0044218,0.95976065,3.8162,01/20.0/2025,2000,g 16.9,4.0
# From MPEC 2025-AH4
C/2022 N2 (PANSTARRS),h,07/31.7472/2025,5.5030,319.7413,75.3873,1.003387,3.825462,2000,6.0,4.0
# From MPEC 2024-A43
C/2022 O1 (ATLAS),h,02/15.6479/2022,71.0447,49.9148,268.9430,1.001841,7.434365,2000,6.0,4.0
# From MPEC 2023-HD1
P/2022 O2 (PANSTARRS),e,9.4201,330.4924,48.6605,6.305852,0.0622427,0.72110569,46.3156,01/20.0/2025,2000,g 16.2,4.0
# From MPEC 2023-N01
C/2022 P1 (NEOWISE),e,154.5946,205.0760,249.9040,18.48283,0.0124037,0.91379221,9.7162,01/20.0/2025,2000,g 13.0,4.0
# From MPEC 2023-XP6
P/2022 P2 (ZTF),e,12.4405,291.1799,137.7464,4.490804,0.1035662,0.55812654,95.6886,01/20.0/2025,2000,g 12.5,4.0
# From MPEC 2023-HD1
C/2022 P3 (ZTF),e,59.5182,72.2142,0.1972,260.3954,0.0002346,0.99014980,0.0000,07/27.5262/2022,2000,g  9.0,4.0
# From MPEC 2023-R20
C/2022 Q2 (ATLAS),e,151.4675,352.9593,44.0503,32.83942,0.0052373,0.94998100,3.7672,01/20.0/2025,2000,g 13.0,4.0
# From MPEC 2025-AH4
C/2022 QE78 (ATLAS),h,09/10.9073/2025,36.5796,119.9063,0.4967,1.004249,5.476895,2000,5.0,4.0
# From MPEC 2024-M41
P/2022 R1 (PANSTARRS),e,7.3737,175.7258,221.8644,7.162665,0.0514153,0.50189961,24.3095,01/20.0/2025,2000,g 11.5,4.0
# From MPEC 2025-AH4
C/2022 R2 (ATLAS),e,52.9041,60.4082,78.3191,429.8257,0.0001106,0.99853275,0.0000,10/25.4487/2022,2000,g 17.0,4.0
# From MPEC 2025-AE4
C/2022 R3 (Leonard),h,03/05.8441/2023,43.0765,8.2538,72.9208,1.001520,5.131051,2000,9.0,4.0
# From MPEC 2022-X67
P/2022 R4 (PANSTARRS),e,21.0129,176.6345,197.4931,3.838190,0.1310733,0.48964594,121.2281,01/20.0/2025,2000,g 16.5,4.0
# From MPEC 2022-WQ9
P/2022 R5 (PANSTARRS),e,15.2926,115.0449,240.5611,3.069489,0.1832758,0.19488485,177.6330,01/20.0/2025,2000,g 16.0,4.0
# From MPEC 2025-AH4
C/2022 R6 (PANSTARRS),h,08/25.9086/2025,57.0189,150.7859,319.8906,1.004962,6.565834,2000,5.0,4.0
# From MPEC 2023-HD1
P/2022 S1 (PANSTARRS),e,34.5696,136.0917,262.8368,6.409158,0.0607439,0.50780302,53.7464,01/20.0/2025,2000,g 15.1,4.0
# From MPEC 2022-VC5
C/2022 S3 (PANSTARRS),h,01/21.6820/2023,78.4994,157.2728,267.9756,1.000398,0.838418,2000,17.0,4.0
# From MPEC 2024-PC5
C/2022 S4 (Lemmon),e,101.2195,220.1762,268.5606,1354,0.0000198,0.99796039,0.0000,07/18.7709/2024,2000,g  8.0,4.0
# From MPEC 2023-HD1
C/2022 S5 (PANSTARRS),e,136.5214,214.8638,232.8093,20.51522,0.0106069,0.89380021,8.3189,01/20.0/2025,2000,g 16.3,4.0
# From MPEC 2024-O39
C/2022 T1 (Lemmon),h,02/17.4239/2024,22.5437,236.9181,324.2938,1.000217,3.444549,2000,9.0,4.0
# From MPEC 2024-YC7
